NUSAT-1 (FRESCO)        
1 41557U 16033B   23131.86956920  .00067055  00000+0  98263-3 0  9993
2 41557  97.3865 238.4397 0006962 255.0519 223.9182 15.55313926387979
NUSAT-2 (BATATA)        
1 41558U 16033C   23131.86763970  .00077860  00000+0  10184-2 0  9995
2 41558  97.4140 246.2129 0007426 246.7311 231.5955 15.58339132388301
CARTOSAT-2C             
1 41599U 16040A   23131.88193175  .00007294  00000+0  34888-3 0  9996
2 41599  97.4382 192.6881 0014259 117.6322 359.9189 15.19194024381799
SATHYABAMASAT           
1 41600U 16040B   23131.10250608  .00184570  00000+0  16436-2 0  9990
2 41600  97.1596 184.4434 0001609  31.5447 328.5910 15.67896663383412
LAPAN-A3                
1 41603U 16040E   23131.86510506  .00003513  00000+0  15515-3 0  9997
2 41603  97.1688 159.1067 0014652  84.9514  41.5268 15.22263805381960
BIROS                   
1 41604U 16040F   23131.05679251  .00009805  00000+0  35184-3 0  9996
2 41604  97.1663 168.0706 0011952  58.9758 301.2654 15.28819311382426
SWAYAM                  
1 41607U 16040J   23131.09356842  .00113856  00000+0  14075-2 0  9998
2 41607  97.1560 181.3917 0003642  33.2350 326.9135 15.59735090383219
BEESAT-4                
1 41619U 16040W   23131.10575683  .00082520  00000+0  12465-2 0  9993
2 41619  97.1622 180.5194 0003852  39.6310 320.5225 15.54439962371107
3CAT-2                  
1 41732U 16051B   23131.71271598  .00044858  00000+0  78795-3 0  9997
2 41732  97.3924  62.5166 0008593 164.7288 195.4224 15.50348408375820
PRATHAM                 
1 41783U 16059A   23131.04523559  .00001070  00000+0  21188-3 0  9997
2 41783  97.8719 163.8082 0032220 216.0205 143.8827 14.63896230353544
ALSAT 1N                
1 41789U 16059G   23131.75330743  .00001186  00000+0  22700-3 0  9991
2 41789  97.8713 169.7976 0027399 193.6261 166.4207 14.65346140353932
CARTOSAT-2D             
1 41948U 17008A   23131.97967684  .00040841  00000+0  19347-2 0  9990
2 41948  97.4162 191.8957 0005081 244.4354 240.0436 15.19187193345676
NAYIF-1 (EO-88)         
1 42017U 17008BX  23131.13744838  .00155458  00000+0  14072-2 0  9991
2 42017  97.2127 201.1450 0004621 175.6572 184.4730 15.67572204347643
ZHUHAI-1 02 (CAS-4B)    
1 42759U 17034B   23131.93469491  .00011044  00000+0  56164-3 0  9991
2 42759  43.0183 317.1240 0011162 235.0839 244.5626 15.16826403326137
ZHUHAI-1 01 (CAS-4A)    
1 42761U 17034D   23131.81290396  .00010566  00000+0  53717-3 0  9996
2 42761  43.0165 316.3364 0011860 235.3933 208.8670 15.16863933326121
UCLSAT                  
1 42765U 17036A   23131.84187027  .00055946  00000+0  10707-2 0  9993
2 42765  97.1457 171.1227 0006675 198.9836 161.1167 15.47856903327663
NIUSAT                  
1 42766U 17036B   23131.83690705  .00028606  00000+0  77525-3 0  9990
2 42766  97.1604 164.0085 0009382 221.8956 138.1572 15.37564806327029
CARTOSAT-2E             
1 42767U 17036C   23131.99692425  .00047579  00000+0  22488-2 0  9996
2 42767  97.4063 192.3043 0006252 315.1476 167.9478 15.19220741326242
AALTO-1                 
1 42775U 17036L   23131.62707344  .00020298  00000+0  61258-3 0  9990
2 42775  97.1558 162.7557 0008869 226.3940 133.6568 15.34265048326913
URSA MAIOR              
1 42776U 17036M   23131.08158343  .00024286  00000+0  69466-3 0  9990
2 42776  97.1566 163.4601 0008609 223.2725 136.7844 15.35921922326899
COMPASS 2               
1 42777U 17036N   23131.09111515  .00248417  00000+0  18854-2 0  9990
2 42777  97.1443 176.2974 0007856 187.7571 172.3572 15.71564564327671
MAX VALIER SAT          
1 42778U 17036P   23131.34221065  .00026056  00000+0  71506-3 0  9998
2 42778  97.1596 167.0914 0007323 218.4808 141.5916 15.37210428327069
PEGASUS                 
1 42784U 17036V   23131.05738628  .00046914  00000+0  10110-2 0  9999
2 42784  97.1509 168.9977 0006838 209.4215 150.6650 15.44426382327243
NUDTSAT                 
1 42787U 17036Y   23131.15767051  .00489114  00000+0  20356-2 0  9991
2 42787  97.1393 178.8696 0009215 200.0862 160.0170 15.84459474327729
SUCHAI                  
1 42788U 17036Z   23131.35643362  .00074223  00000+0  12080-2 0  9998
2 42788  97.1492 172.5817 0006906 199.4963 160.6027 15.52384878327573
SKCUBE                  
1 42789U 17036AA  23131.57502558  .00057645  00000+0  10888-2 0  9997
2 42789  97.1494 171.4689 0006628 198.3257 161.7756 15.48229626327447
VZLUSAT-1               
1 42790U 17036AB  23131.09984771  .00401795  00000+0  20193-2 0  9996
2 42790  97.1386 178.4818 0007531 197.3527 162.7485 15.80618599327844
ROBUSTA 1B              
1 42792U 17036AD  23131.09476618  .00064460  00000+0  11057-2 0  9997
2 42792  97.1471 172.0844 0006247 195.4003 164.7060 15.50952112327458
D-SAT                   
1 42794U 17036AF  23130.40094536  .00008661  00000+0  68531-3 0  9999
2 42794  97.4653 124.2302 0119324  69.3430 292.0539 14.95319233320286
NORSAT 2                
1 42828U 17042D   23131.85870199  .00005527  00000+0  50376-3 0  9997
2 42828  97.3984 334.6693 0012725 350.2611   9.8363 14.95442994317174
TECHNOSAT               
1 42829U 17042E   23131.54214959  .00003269  00000+0  31547-3 0  9990
2 42829  97.3919 331.1771 0013228 355.0418   5.0670 14.93447437317027
2017-042F               
1 42830U 17042F   23131.53606288  .00014837  00000+0  11507-2 0  9997
2 42830  97.4062 338.4219 0011104 319.8026  40.2376 15.01426219317377
FLYING LAPTOP           
1 42831U 17042G   23131.83151401  .00002046  00000+0  20173-3 0  9992
2 42831  97.3936 331.7708 0013210 355.0406   5.0706 14.92974887317060
CORVUS BC2              
1 42846U 17042X   23131.44051272  .00004214  00000+0  39456-3 0  9993
2 42846  97.3899 334.7730 0008355 347.3433  12.7577 14.94534809317238
CORVUS BC1              
1 42847U 17042Y   23131.36699579  .00003737  00000+0  34978-3 0  9996
2 42847  97.3895 335.0559 0008065 345.8948  14.2046 14.94622887317232
CZ-4C R/B               
1 43012U 17072C   23131.85787463  .00000736  00000+0  15891-3 0  9997
2 43012  98.6498 186.3320 0127130  32.9237 327.9797 14.56709198291667
RADFXSAT (FOX-1B)       
1 43017U 17073E   23131.61838250  .00007630  00000+0  53814-3 0  9995
2 43017  97.6345  17.4084 0234643 189.6114 170.0574 14.85610220295758
EAGLESAT 1              
1 43018U 17073F   23131.22245374  .00012406  00000+0  79933-3 0  9999
2 43018  97.6395  20.6018 0218221 179.3768 180.7766 14.90872123295784
INS-1C                  
1 43116U 18004F   23131.70926664  .00053603  00000+0  10111-2 0  9990
2 43116  97.3369 212.6526 0005382 239.7217 120.3501 15.48294249296723
FLOCK 3P'-3             
1 43119U 18004J   23131.22136349  .00282935  00000+0  35352-2 0  9999
2 43119  97.3246 209.2986 0007497 252.4556 107.5881 15.58863027296487
FLOCK 3P'-2             
1 43120U 18004K   23131.43544883  .00185794  00000+0  31361-2 0  9991
2 43120  97.3333 208.3173 0006676 259.8680 100.1819 15.50946782296427
FLOCK 3P'-4             
1 43122U 18004M   23131.20737157  .00174260  00000+0  32024-2 0  9999
2 43122  97.3359 208.2011 0005838 272.1600  87.8982 15.48568905296387
PICSAT                  
1 43132U 18004X   23131.57398043  .00071954  00000+0  11384-2 0  9999
2 43132  97.3302 213.8690 0005300 234.1816 125.8945 15.53193242296850
CNUSAIL-1               
1 43133U 18004Y   23131.69649785  .00031374  00000+0  75876-3 0  9994
2 43133  97.3285 209.0710 0005247 263.1162  96.9488 15.41068963296574
2018-004Z               
1 43134U 18004Z   23131.21092874  .00051226  00000+0  97302-3 0  9990
2 43134  97.3307 211.5913 0004929 249.6181 110.4541 15.48106927296683
FOX-1D (AO-92)          
1 43137U 18004AC  23131.21278107  .00039728  00000+0  88130-3 0  9990
2 43137  97.3290 210.0707 0004763 260.1332  99.9378 15.43616873296606
STEP CUBE LAB           
1 43138U 18004AD  23131.19223932  .00925322  40002-3  20788-2 0  9992
2 43138  97.3242 220.5968 0011574 252.9726 107.0283 15.97660567297237
XIAOXIANG-2             
1 43155U 18008A   23131.79365947  .00022820  00000+0  93126-3 0  9992
2 43155  97.3017 185.2131 0015047  80.8069  59.0286 15.24318228293107
ZHOU ENLAI              
1 43156U 18008B   23131.81050552  .00024785  00000+0  99888-3 0  9992
2 43156  97.3068 185.2952 0012608  82.7156  28.6650 15.24753096293038
QUANTUTONG 1            
1 43158U 18008D   23131.88448741  .00018963  00000+0  83190-3 0  9992
2 43158  97.3044 182.4649 0012214  87.5325  85.9721 15.21940959292891
S-NET D                 
1 43186U 18014G   23131.30194565  .00004443  00000+0  35909-3 0  9992
2 43186  97.6417  35.7842 0011581 285.8001  74.1945 15.00257373288020
S-NET B                 
1 43187U 18014H   23131.30279815  .00004341  00000+0  35106-3 0  9991
2 43187  97.6407  35.7188 0011729 284.0708  75.9211 15.00247306288022
S-NET A                 
1 43188U 18014J   23131.50307766  .00004489  00000+0  36279-3 0  9996
2 43188  97.6413  36.0003 0011758 283.4026  76.5887 15.00251822288055
S-NET C                 
1 43189U 18014K   23131.50490127  .00004334  00000+0  35059-3 0  9995
2 43189  97.6392  35.9002 0012030 280.1202  79.8664 15.00234507286602
SHAONIAN XING           
1 43199U 18015H   23131.80090368  .00145610  00000+0  13648-2 0  9995
2 43199  97.5441 288.6176 0008206 275.1566 192.3699 15.66706972294108
LUOJIA-1 01             
1 43485U 18048B   23131.85285550  .00002616  00000+0  36305-3 0  9997
2 43485  97.9056 212.5899 0010081 211.2215 148.8414 14.78734474266375
CZ-4B R/B               
1 43656U 18081B   23131.44620704  .00000318  00000+0  11462-3 0  9997
2 43656  99.4436 297.6796 0206587 282.6068  75.2082 14.30819291237258
CUBEBEL-1 (BSUSAT-1)    
1 43666U 18083E   23131.84066882  .00034342  00000+0  98112-3 0  9996
2 43666  97.3837 163.2851 0007979 241.0436 292.5676 15.35897542251613
CHANGSHAGAOXIN (TY 4-01)
1 43669U 18083H   23131.85480616  .00028902  00000+0  91104-3 0  9994
2 43669  97.3832 158.1153 0005528 240.2918 246.4928 15.32835171251371
